STARLINK-30996          
1 59023U 24038A   26068.27030958 -.00001195  00000+0 -33911-4 0  9990
2 59023  43.0041  29.4218 0000498 228.2370 131.8439 15.27572837116064
LIZZIESAT-1 (LS-1)      
1 59132U 24043AL  26068.89230471  .00005784  00000+0  22329-3 0  9993
2 59132  97.5461 203.4772 0009923 229.9925 130.0443 15.26635711111780
